{"type": "FeatureCollection", "features": [ {"type": "Feature", "properties": {"norad_id": 29808, "name": "FENGYUN 1C DEB", "group": "fengyun-1c-debris", "lat": -75.31200914062372, "lon": -61.16185148315322, "alt_km": 526.8204698367363, "timestamp": "2025-12-09T18:55:17.503366+00:00", "meta": {"OBJECT_NAME": "FENGYUN 1C DEB", "OBJECT_ID": "1999-025DA", "EPOCH": "2025-12-09T07:11:43.882080", "MEAN_MOTION": 15.19253689, "ECCENTRICITY": 0.0018257, "INCLINATION": 99.0151, "RA_OF_ASC_NODE": 260.9768, "ARG_OF_PERICENTER": 95.0635, "MEAN_ANOMALY": 35.7584, "EPHEMERIS_TYPE": 0, "CLASSIFICATION_TYPE": "U", "NORAD_CAT_ID": 29808, "ELEMENT_SET_NO": 999, "REV_AT_EPOCH": 98173, "BSTAR": 0.015981, "MEAN_MOTION_DOT": 0.00354524, "MEAN_MOTION_DDOT": 0}, "tle": {"line1": "1 29808U 99025DA  25343.29981345  .00354524  00000+0  15981-1 0  9997", "line2": "2 29808  99.0151 260.9768 0018257  95.0635  35.7584 15.19253689981732"}}, "geometry": {"type": "Point", "coordinates": [-61.16185148315322, -75.31200914062372]}}, {"type": "Feature", "properties": {"norad_id": 29809, "name": "FENGYUN 1C DEB", "group": "fengyun-1c-debris", "lat": -80.91862517196701, "lon": 49.80916427354399, "alt_km": 744.4123370155858, "timestamp": "2025-12-09T18:55:17.503377+00:00", "meta": {"OBJECT_NAME": "FENGYUN 1C DEB", "OBJECT_ID": "1999-025DB", "EPOCH": "2025-12-09T11:36:03.364128", "MEAN_MOTION": 14.46576676, "ECCENTRICITY": 0.01163527, "INCLINATION": 98.86, "RA_OF_ASC_NODE": 306.876, "ARG_OF_PERICENTER": 359.7676, "MEAN_ANOMALY": 122.0285, "EPHEMERIS_TYPE": 0, "CLASSIFICATION_TYPE": "U", "NORAD_CAT_ID": 29809, "ELEMENT_SET_NO": 999, "REV_AT_EPOCH": 99420, "BSTAR": 0.0006896591, "MEAN_MOTION_DOT": 2.652e-05, "MEAN_MOTION_DDOT": 0}, "tle": {"line1": "1 29809U 99025DB  25343.48337227  .00002652  00000+0  68966-3 0  9998", "line2": "2 29809  98.8600 306.8760 0116352 359.7676 122.0285 14.46576676994208"}}, "geometry": {"type": "Point", "coordinates": [49.80916427354399, -80.91862517196701]}}, {"type": "Feature", "properties": {"norad_id": 29810, "name": "FENGYUN 1C DEB", "group": "fengyun-1c-debris", "lat": 59.96044649639242, "lon": -143.26373486226692, "alt_km": 789.5014022987716, "timestamp": "2025-12-09T18:55:17.503387+00:00", "meta": {"OBJECT_NAME": "FENGYUN 1C DEB", "OBJECT_ID": "1999-025DC", "EPOCH": "2025-12-09T01:49:09.564960", "MEAN_MOTION": 14.29121615, "ECCENTRICITY": 0.00671026, "INCLINATION": 99.207, "RA_OF_ASC_NODE": 19.6952, "ARG_OF_PERICENTER": 29.5, "MEAN_ANOMALY": 24.2788, "EPHEMERIS_TYPE": 0, "CLASSIFICATION_TYPE": "U", "NORAD_CAT_ID": 29810, "ELEMENT_SET_NO": 999, "REV_AT_EPOCH": 98325, "BSTAR": 0.00037876631, "MEAN_MOTION_DOT": 9.35e-06, "MEAN_MOTION_DDOT": 0}, "tle": {"line1": "1 29810U 99025DC  25343.07580515  .00000935  00000+0  37877-3 0  9994", "line2": "2 29810  99.2070  19.6952 0067102  29.5000  24.2788 14.29121615983253"}}, "geometry": {"type": "Point", "coordinates": [-143.26373486226692, 59.96044649639242]}}, {"type": "Feature", "properties": {"norad_id": 29812, "name": "FENGYUN 1C DEB", "group": "fengyun-1c-debris", "lat": -74.49838701344507, "lon": -155.1558638256281, "alt_km": 830.0910339674674, "timestamp": "2025-12-09T18:55:17.503397+00:00", "meta": {"OBJECT_NAME": "FENGYUN 1C DEB", "OBJECT_ID": "1999-025DE", "EPOCH": "2025-12-07T01:05:47.261760", "MEAN_MOTION": 14.01959129, "ECCENTRICITY": 0.01444592, "INCLINATION": 98.3498, "RA_OF_ASC_NODE": 170.3581, "ARG_OF_PERICENTER": 343.8427, "MEAN_ANOMALY": 145.6696, "EPHEMERIS_TYPE": 0, "CLASSIFICATION_TYPE": "U", "NORAD_CAT_ID": 29812, "ELEMENT_SET_NO": 999, "REV_AT_EPOCH": 96092, "BSTAR": 0.0016935691, "MEAN_MOTION_DOT": 2.789e-05, "MEAN_MOTION_DDOT": 0}, "tle": {"line1": "1 29812U 99025DE  25341.04568590  .00002789  00000+0  16936-2 0  9991", "line2": "2 29812  98.3498 170.3581 0144459 343.8427 145.6696 14.01959129960922"}}, "geometry": {"type": "Point", "coordinates": [-155.1558638256281, -74.49838701344507]}}, {"type": "Feature", "properties": {"norad_id": 29813, "name": "FENGYUN 1C DEB", "group": "fengyun-1c-debris", "lat": -14.695312742937615, "lon": -178.5691642700911, "alt_km": 859.0051729282322, "timestamp": "2025-12-09T18:55:17.503407+00:00", "meta": {"OBJECT_NAME": "FENGYUN 1C DEB", "OBJECT_ID": "1999-025DF", "EPOCH": "2025-12-09T13:36:35.989344", "MEAN_MOTION": 14.09449959, "ECCENTRICITY": 0.0011721, "INCLINATION": 98.7276, "RA_OF_ASC_NODE": 3.5252, "ARG_OF_PERICENTER": 231.5911, "MEAN_ANOMALY": 280.9191, "EPHEMERIS_TYPE": 0, "CLASSIFICATION_TYPE": "U", "NORAD_CAT_ID": 29813, "ELEMENT_SET_NO": 999, "REV_AT_EPOCH": 97215, "BSTAR": 8.7706996e-05, "MEAN_MOTION_DOT": 1.11e-06, "MEAN_MOTION_DDOT": 0}, "tle": {"line1": "1 29813U 99025DF  25343.56708321  .00000111  00000+0  87707-4 0  9992", "line2": "2 29813  98.7276   3.5252 0011721 231.5911 280.9191 14.09449959972153"}}, "geometry": {"type": "Point", "coordinates": [-178.5691642700911, -14.695312742937615]}}, {"type": "Feature", "properties": {"norad_id": 29815, "name": "FENGYUN 1C DEB", "group": "fengyun-1c-debris", "lat": -42.784451210494076, "lon": -0.09838593698582693, "alt_km": 816.5835314543647, "timestamp": "2025-12-09T18:55:17.503417+00:00", "meta": {"OBJECT_NAME": "FENGYUN 1C DEB", "OBJECT_ID": "1999-025DH", "EPOCH": "2025-12-09T10:55:20.912160", "MEAN_MOTION": 14.63681167, "ECCENTRICITY": 0.01839034, "INCLINATION": 98.056, "RA_OF_ASC_NODE": 352.0436, "ARG_OF_PERICENTER": 145.5129, "MEAN_ANOMALY": 215.8169, "EPHEMERIS_TYPE": 0, "CLASSIFICATION_TYPE": "U", "NORAD_CAT_ID": 29815, "ELEMENT_SET_NO": 999, "REV_AT_EPOCH": 99807, "BSTAR": 0.00073715669, "MEAN_MOTION_DOT": 4.855e-05, "MEAN_MOTION_DDOT": 0}, "tle": {"line1": "1 29815U 99025DH  25343.45510315  .00004855  00000+0  73716-3 0  9999", "line2": "2 29815  98.0560 352.0436 0183903 145.5129 215.8169 14.63681167998077"}}, "geometry": {"type": "Point", "coordinates": [-0.09838593698582693, -42.784451210494076]}}, {"type": "Feature", "properties": {"norad_id": 29816, "name": "FENGYUN 1C DEB", "group": "fengyun-1c-debris", "lat": -29.36605878057403, "lon": -151.27395236604713, "alt_km": 886.728919311663, "timestamp": "2025-12-09T18:55:17.503426+00:00", "meta": {"OBJECT_NAME": "FENGYUN 1C DEB", "OBJECT_ID": "1999-025DJ", "EPOCH": "2025-12-09T14:10:17.388192", "MEAN_MOTION": 14.44245129, "ECCENTRICITY": 0.02378173, "INCLINATION": 98.9927, "RA_OF_ASC_NODE": 203.4045, "ARG_OF_PERICENTER": 186.5262, "MEAN_ANOMALY": 193.7591, "EPHEMERIS_TYPE": 0, "CLASSIFICATION_TYPE": "U", "NORAD_CAT_ID": 29816, "ELEMENT_SET_NO": 999, "REV_AT_EPOCH": 98142, "BSTAR": 0.0013866821, "MEAN_MOTION_DOT": 6.682e-05, "MEAN_MOTION_DDOT": 0}, "tle": {"line1": "1 29816U 99025DJ  25343.59047903  .00006682  00000+0  13867-2 0  9993", "line2": "2 29816  98.9927 203.4045 0237817 186.5262 193.7591 14.44245129981423"}}, "geometry": {"type": "Point", "coordinates": [-151.27395236604713, -29.36605878057403]}}, {"type": "Feature", "properties": {"norad_id": 29817, "name": "FENGYUN 1C DEB", "group": "fengyun-1c-debris", "lat": -46.4845866370745, "lon": 143.9878419445582, "alt_km": 859.866435424703, "timestamp": "2025-12-09T18:55:17.503437+00:00", "meta": {"OBJECT_NAME": "FENGYUN 1C DEB", "OBJECT_ID": "1999-025DK", "EPOCH": "2025-12-09T11:46:51.242304", "MEAN_MOTION": 14.14246352, "ECCENTRICITY": 0.00124475, "INCLINATION": 98.5572, "RA_OF_ASC_NODE": 332.8273, "ARG_OF_PERICENTER": 24.5755, "MEAN_ANOMALY": 128.6258, "EPHEMERIS_TYPE": 0, "CLASSIFICATION_TYPE": "U", "NORAD_CAT_ID": 29817, "ELEMENT_SET_NO": 999, "REV_AT_EPOCH": 97349, "BSTAR": 0.00054685137, "MEAN_MOTION_DOT": 1.003e-05, "MEAN_MOTION_DDOT": 0}, "tle": {"line1": "1 29817U 99025DK  25343.49087086  .00001003  00000+0  54685-3 0  9995", "line2": "2 29817  98.5572 332.8273 0012447  24.5755 128.6258 14.14246352973495"}}, "geometry": {"type": "Point", "coordinates": [143.9878419445582, -46.4845866370745]}}, {"type": "Feature", "properties": {"norad_id": 29818, "name": "FENGYUN 1C DEB", "group": "fengyun-1c-debris", "lat": 64.84079424154588, "lon": -157.85826477581503, "alt_km": 800.7771172027806, "timestamp": "2025-12-09T18:55:17.503447+00:00", "meta": {"OBJECT_NAME": "FENGYUN 1C DEB", "OBJECT_ID": "1999-025DL", "EPOCH": "2025-12-09T10:54:20.397600", "MEAN_MOTION": 14.04498536, "ECCENTRICITY": 0.01154328, "INCLINATION": 98.7217, "RA_OF_ASC_NODE": 220.8967, "ARG_OF_PERICENTER": 35.0314, "MEAN_ANOMALY": 142.8179, "EPHEMERIS_TYPE": 0, "CLASSIFICATION_TYPE": "U", "NORAD_CAT_ID": 29818, "ELEMENT_SET_NO": 999, "REV_AT_EPOCH": 96763, "BSTAR": 0.00026997275, "MEAN_MOTION_DOT": 4.15e-06, "MEAN_MOTION_DDOT": 0}, "tle": {"line1": "1 29818U 99025DL  25343.45440275  .00000415  00000+0  26997-3 0  9996", "line2": "2 29818  98.7217 220.8967 0115432  35.0314 142.8179 14.04498536967637"}}, "geometry": {"type": "Point", "coordinates": [-157.85826477581503, 64.84079424154588]}}, {"type": "Feature", "properties": {"norad_id": 29819, "name": "FENGYUN 1C DEB", "group": "fengyun-1c-debris", "lat": -23.920319944684493, "lon": 143.7436590028256, "alt_km": 977.2288504489534, "timestamp": "2025-12-09T18:55:17.503458+00:00", "meta": {"OBJECT_NAME": "FENGYUN 1C DEB", "OBJECT_ID": "1999-025DM", "EPOCH": "2025-12-09T11:40:46.627392", "MEAN_MOTION": 14.02188893, "ECCENTRICITY": 0.01915238, "INCLINATION": 98.7312, "RA_OF_ASC_NODE": 327.363, "ARG_OF_PERICENTER": 76.142, "MEAN_ANOMALY": 43.906, "EPHEMERIS_TYPE": 0, "CLASSIFICATION_TYPE": "U", "NORAD_CAT_ID": 29819, "ELEMENT_SET_NO": 999, "REV_AT_EPOCH": 96574, "BSTAR": 0.00065058791, "MEAN_MOTION_DOT": 1.129e-05, "MEAN_MOTION_DDOT": 0}, "tle": {"line1": "1 29819U 99025DM  25343.48665078  .00001129  00000+0  65059-3 0  9995", "line2": "2 29819  98.7312 327.3630 0191523  76.1420  43.9060 14.02188893965743"}}, "geometry": {"type": "Point", "coordinates": [143.7436590028256, -23.920319944684493]}}]}